ALOS (DAICHI)           
1 28931U 06002A   26078.85049379  .00001184  00000+0  20643-3 0  9990
2 28931  98.1237  34.7562 0000714  82.4376 277.6911 14.69840946 74975
H-2A R/B                
1 28932U 06002B   26078.83627104  .00008850  00000+0  44098-3 0  9994
2 28932  98.2428 226.7352 0052163 206.2198 153.6390 15.16630183 95972
RESURS-DK 1             
1 29228U 06021A   26078.78442465  .00002533  00000+0  14998-3 0  9991
2 29228  69.9337 210.9089 0000856 135.2424 224.8811 15.12812447 89054
CZ-4B R/B               
1 29507U 06046C   26078.70161456  .00003421  00000+0  17447-3 0  9997
2 29507  97.5570 123.5831 0031983 230.9957 128.8427 15.16999798 61564
CZ-2C R/B               
1 31114U 07010B   26078.87072313  .00000107  00000+0  68354-4 0  9999
2 31114  98.3988 191.6397 0057845 264.4271  95.0308 14.20249751981163
COSMO-SKYMED 1          
1 31598U 07023A   26078.82725259  .00002489  00000+0  22374-3 0  9994
2 31598  97.8881 269.9420 0001438  87.6805 272.4581 14.96614074 16425
COSMOS 2428             
1 31792U 07029A   26078.72920134 -.00000018  00000+0  16178-4 0  9997
2 31792  70.9441 182.2723 0009508 266.8413  93.1620 14.12947467965518
SL-16 R/B               
1 31793U 07029B   26078.68446953  .00000352  00000+0  20703-3 0  9993
2 31793  70.9756 151.3763 0002336 276.4551 198.6253 14.14838902966789
KORONAS-FOTON           
1 33504U 09003A   26078.22987372  .00009812  00000+0  21726-3 0  9990
2 33504  82.4270 265.9565 0011785 118.5773 241.6662 15.43545810947218
CZ-2C R/B               
1 37731U 11030B   26078.87141723  .00001389  00000+0  18115-3 0  9991
2 37731  97.8563  35.9320 0051566 318.6211  57.6131 14.81258787791605
H-2A R/B                
1 38341U 12025E   26078.83363814  .00002736  00000+0  25053-3 0  9993
2 38341  98.4744  46.6931 0043155 279.9701  79.6648 14.95235764749735
SHIJIAN-16 (SJ-16)      
1 39358U 13057A   26078.81878777  .00001082  00000+0  10830-3 0  9995
2 39358  74.9740 165.9144 0015266  86.4878 273.8056 14.92387361673014
SL-4 R/B                
1 39679U 14021B   26078.82127487  .00011538  00000+0  25508-3 0  9994
2 39679  51.6057 287.8393 0096678 139.8574 220.9604 15.39497305657831
ALOS-2                  
1 39766U 14029A   26078.86338966  .00001393  00000+0  19359-3 0  9994
2 39766  97.9195 177.3141 0001797 113.8460 246.2940 14.79412057638378
YAOGAN-29               
1 41038U 15069A   26078.84778721  .00000461  00000+0  63386-4 0  9994
2 41038  98.0128 107.3037 0001224  23.1881 336.9387 14.83006875557388
ASTRO-H (HITOMI)        
1 41337U 16012A   26078.81369163  .00002672  00000+0  15439-3 0  9999
2 41337  30.9993 291.2126 0009618  72.9706 287.1986 15.10068181553769
HXMT (HUIYAN)           
1 42758U 17034A   26078.84802834  .00004492  00000+0  22814-3 0  9999
2 42758  43.0150 320.1929 0032981 297.7654  61.9851 15.17594679484088
